GLOBALSTAR M057         
1 25943U 99058A   25342.34303373 -.00000022  00000+0  64356-3 0  9997
2 25943  51.9966 213.9481 0003140  27.2626 332.8388 12.24831330188270
GLOBALSTAR M059         
1 25944U 99058B   25342.58627258 -.00000077  00000+0  11957-3 0  9994
2 25944  52.0019  95.3609 0000649 114.2047 258.8397 11.99988182594986
GLOBALSTAR M056         
1 25945U 99058C   25342.63803167 -.00000137  00000+0 -58247-3 0  9997
2 25945  51.9971  92.7093 0001578 148.0275 225.8284 12.04781428183658
GLOBALSTAR M031         
1 25946U 99058D   25342.35592723 -.00000153  00000+0 -63030-3 0  9994
2 25946  51.9980 335.3774 0001218 167.4553 332.2114 12.16044201185736
GLOBALSTAR M039         
1 25961U 99062A   25342.59820017 -.00000081  00000+0  12781-3 0  9998
2 25961  51.9845  97.4867 0002577  34.3051 325.7981 12.62338703202245
GLOBALSTAR M034         
1 25962U 99062B   25342.55497517 -.00000051  00000+0  47012-3 0  9992
2 25962  51.9884 278.1302 0014863  12.6515 158.7788 11.79453177158964
GLOBALSTAR M029         
1 25963U 99062C   25342.27424170 -.00000039  00000+0  58826-3 0  9998
2 25963  51.9827 344.0938 0002571  97.4011 275.5896 11.99903976190025
GLOBALSTAR M061         
1 25964U 99062D   25342.66344875 -.00000100  00000+0 -32045-3 0  9990
2 25964  51.9794 104.1971 0004961 292.1941  81.0264 11.76778129141729
